{
"type": "FeatureCollection",
"name": "pontos_unipe",
"crs": { "type": "name", "properties": { "name": "urn:ogc:def:crs:OGC:1.3:CRS84" } },
"features": [
{ "type": "Feature", "properties": { "id": 1, "level": 0, "nome": "Big Hot Lanchonetes", "tipo": "comercio" }, "geometry": { "type": "Point", "coordinates": [ -34.855945911439065, -7.159409207466834 ] } },
{ "type": "Feature", "properties": { "id": 1, "level": 0, "nome": "Tapiocabana", "tipo": "comercio" }, "geometry": { "type": "Point", "coordinates": [ -34.855272022663677, -7.159352910604063 ] } },
{ "type": "Feature", "properties": { "id": 1, "level": 0, "nome": "Restaurante Dona Xica", "tipo": "comercio" }, "geometry": { "type": "Point", "coordinates": [ -34.855832889407559, -7.158614059021055 ] } },
{ "type": "Feature", "properties": { "id": 1, "level": 0, "nome": "Minaçaí", "tipo": "comercio" }, "geometry": { "type": "Point", "coordinates": [ -34.854698147504422, -7.158417404076986 ] } },
{ "type": "Feature", "properties": { "id": 1, "level": 0, "nome": "Forno Di Campi", "tipo": "comercio" }, "geometry": { "type": "Point", "coordinates": [ -34.853571521879772, -7.158436039440653 ] } },
{ "type": "Feature", "properties": { "id": 1, "level": 0, "nome": "Comercio do Museu", "tipo": "comercio" }, "geometry": { "type": "Point", "coordinates": [ -34.853439937482044, -7.160425778281414 ] } },
{ "type": "Feature", "properties": { "id": 1, "level": 0, "nome": "Praça das Pedras", "tipo": "turismo" }, "geometry": { "type": "Point", "coordinates": [ -34.853278681265799, -7.159405982799335 ] } },
{ "type": "Feature", "properties": { "id": 1, "level": 0, "nome": "Reitoria", "tipo": "reitoria" }, "geometry": { "type": "Point", "coordinates": [ -34.852561420454293, -7.15936717281162 ] } },
{ "type": "Feature", "properties": { "id": 1, "level": 0, "nome": "EVA", "tipo": "eva" }, "geometry": { "type": "Point", "coordinates": [ -34.854450680511448, -7.160416025304069 ] } },
{ "type": "Feature", "properties": { "id": 1, "level": 0, "nome": "Biblioteca", "tipo": "biblioteca" }, "geometry": { "type": "Point", "coordinates": [ -34.853936218990299, -7.160239473469627 ] } },
{ "type": "Feature", "properties": { "id": 1, "level": 0, "nome": "Museu", "tipo": "museu" }, "geometry": { "type": "Point", "coordinates": [ -34.853203591167365, -7.159949889023838 ] } },
{ "type": "Feature", "properties": { "id": 1, "level": 0, "nome": "Achados e Perdidos", "tipo": "achados_e_perdidos" }, "geometry": { "type": "Point", "coordinates": [ -34.854270855710858, -7.161085796388705 ] } },
{ "type": "Feature", "properties": { "id": 1, "level": 0, "nome": "Fisioterapia", "tipo": "fisioterapia" }, "geometry": { "type": "Point", "coordinates": [ -34.854905852103933, -7.157890841494035 ] } },
{ "type": "Feature", "properties": { "id": 1, "level": 0, "nome": "Fonoaudiologia", "tipo": "fonoaudiologia" }, "geometry": { "type": "Point", "coordinates": [ -34.855682498288367, -7.158216989470679 ] } },
{ "type": "Feature", "properties": { "id": 1, "level": 0, "nome": "Auditório", "tipo": "auditorio" }, "geometry": { "type": "Point", "coordinates": [ -34.852381400562521, -7.158490873479696 ] } },
{ "type": "Feature", "properties": { "id": 1, "level": 0, "nome": "Medicina", "tipo": "medicina" }, "geometry": { "type": "Point", "coordinates": [ -34.852044914650016, -7.158970128970013 ] } },
{ "type": "Feature", "properties": { "id": 1, "level": 0, "nome": "Ginasio", "tipo": "ginasio" }, "geometry": { "type": "Point", "coordinates": [ -34.855711710527288, -7.159741118363836 ] } },
{ "type": "Feature", "properties": { "id": 1, "level": 0, "nome": "CT", "tipo": "bloco" }, "geometry": { "type": "Point", "coordinates": [ -34.856120468584976, -7.159518861624708 ] } },
{ "type": "Feature", "properties": { "id": 1, "level": 0, "nome": "Educação Física", "tipo": "bloco" }, "geometry": { "type": "Point", "coordinates": [ -34.85648053334657, -7.159809902435965 ] } },
{ "type": "Feature", "properties": { "id": 1, "level": 0, "nome": "Enfermagem", "tipo": "bloco" }, "geometry": { "type": "Point", "coordinates": [ -34.8543106493157, -7.160893593553131 ] } },
{ "type": "Feature", "properties": { "id": 1, "level": 0, "nome": "Odontologia", "tipo": "bloco" }, "geometry": { "type": "Point", "coordinates": [ -34.853500966246344, -7.160852803193841 ] } },
{ "type": "Feature", "properties": { "id": 1, "level": 0, "nome": "Estacionamento do Primeiros Socorros", "tipo": "estacionamento" }, "geometry": { "type": "Point", "coordinates": [ -34.853452151295777, -7.1580966408708 ] } },
{ "type": "Feature", "properties": { "id": 1, "level": 0, "nome": "Estacionamento do Auditório", "tipo": "estacionamento" }, "geometry": { "type": "Point", "coordinates": [ -34.852901634899617, -7.158349482661507 ] } },
{ "type": "Feature", "properties": { "id": 1, "level": 0, "nome": "Estacionamento de Psicologia", "tipo": "estacionamento" }, "geometry": { "type": "Point", "coordinates": [ -34.855156023282959, -7.158793109967688 ] } },
{ "type": "Feature", "properties": { "id": 1, "level": 0, "nome": "Estacionamento do EVA", "tipo": "estacionamento" }, "geometry": { "type": "Point", "coordinates": [ -34.855387527124186, -7.160444200920683 ] } },
{ "type": "Feature", "properties": { "id": 1, "level": 0, "nome": "Estacionamento da Reitoria", "tipo": "estacionamento" }, "geometry": { "type": "Point", "coordinates": [ -34.853134947004214, -7.158997060428605 ] } },
{ "type": "Feature", "properties": { "id": 1, "level": 0, "nome": "Bloco M", "tipo": "bloco" }, "geometry": { "type": "Point", "coordinates": [ -34.854522422035878, -7.160956501688461 ] } },
{ "type": "Feature", "properties": { "id": 1, "level": 0, "nome": "Bloco O", "tipo": "bloco" }, "geometry": { "type": "Point", "coordinates": [ -34.854477267444743, -7.161139202585543 ] } },
{ "type": "Feature", "properties": { "id": 1, "level": 0, "nome": "Bloco R", "tipo": "bloco" }, "geometry": { "type": "Point", "coordinates": [ -34.853191439905601, -7.160586617525214 ] } },
{ "type": "Feature", "properties": { "id": 1, "level": 0, "nome": "Bloco K", "tipo": "bloco" }, "geometry": { "type": "Point", "coordinates": [ -34.856482822243031, -7.159611493645989 ] } },
{ "type": "Feature", "properties": { "id": 1, "level": 0, "nome": "Bloco J", "tipo": "bloco" }, "geometry": { "type": "Point", "coordinates": [ -34.855736610903449, -7.159081259247894 ] } },
{ "type": "Feature", "properties": { "id": 1, "level": 0, "nome": "Bloco H", "tipo": "bloco" }, "geometry": { "type": "Point", "coordinates": [ -34.855716967382364, -7.157945652284462 ] } },
{ "type": "Feature", "properties": { "id": 1, "level": 0, "nome": "Bloco I", "tipo": "bloco" }, "geometry": { "type": "Point", "coordinates": [ -34.855760715848071, -7.157765912097601 ] } },
{ "type": "Feature", "properties": { "id": 1, "level": 0, "nome": "Bloco G", "tipo": "bloco" }, "geometry": { "type": "Point", "coordinates": [ -34.854028242854582, -7.157744155477948 ] } },
{ "type": "Feature", "properties": { "id": 1, "level": 0, "nome": "Bloco F", "tipo": "bloco" }, "geometry": { "type": "Point", "coordinates": [ -34.855546786998659, -7.158563843711556 ] } },
{ "type": "Feature", "properties": { "id": 1, "level": 0, "nome": "Bloco F", "tipo": "bloco" }, "geometry": { "type": "Point", "coordinates": [ -34.853934933364876, -7.1581240388063 ] } },
{ "type": "Feature", "properties": { "id": 1, "level": 0, "nome": "Blodo E", "tipo": "bloco" }, "geometry": { "type": "Point", "coordinates": [ -34.853877877000265, -7.158344929656421 ] } },
{ "type": "Feature", "properties": { "id": 1, "level": 0, "nome": "Bloco D", "tipo": "bloco" }, "geometry": { "type": "Point", "coordinates": [ -34.853821693646559, -7.158556989789564 ] } },
{ "type": "Feature", "properties": { "id": 1, "level": 0, "nome": "Bloco C3", "tipo": "bloco" }, "geometry": { "type": "Point", "coordinates": [ -34.853758940688465, -7.158992732487806 ] } },
{ "type": "Feature", "properties": { "id": 1, "level": 0, "nome": "Bloco B2", "tipo": "bloco" }, "geometry": { "type": "Point", "coordinates": [ -34.853729323436625, -7.159205043578607 ] } },
{ "type": "Feature", "properties": { "id": 1, "level": 0, "nome": "Bloco A2", "tipo": "bloco" }, "geometry": { "type": "Point", "coordinates": [ -34.85372485806969, -7.159451521157178 ] } },
{ "type": "Feature", "properties": { "id": 1, "level": 0, "nome": "Bloco A1", "tipo": "bloco" }, "geometry": { "type": "Point", "coordinates": [ -34.85500935780064, -7.159781978485218 ] } },
{ "type": "Feature", "properties": { "id": 1, "level": 0, "nome": "Bloco B1", "tipo": "bloco" }, "geometry": { "type": "Point", "coordinates": [ -34.855070884658957, -7.159550494364492 ] } },
{ "type": "Feature", "properties": { "id": 1, "level": 0, "nome": "Bloco C1", "tipo": "bloco" }, "geometry": { "type": "Point", "coordinates": [ -34.855124740419875, -7.159347065286942 ] } }
]
}
