{
"type": "FeatureCollection",
"name": "predios_com_interior",
"crs": { "type": "name", "properties": { "name": "urn:ogc:def:crs:OGC:1.3:CRS84" } },
"features": [
{ "type": "Feature", "properties": { "id": 4, "tipo": "predio", "nome": "Bloco K" }, "geometry": { "type": "MultiPolygon", "coordinates": [ [ [ [ -34.856529853425293, -7.159682219752417 ], [ -34.856557826931414, -7.159570957247202 ], [ -34.856243181140456, -7.159492041165158 ], [ -34.856215207552935, -7.159603303671377 ], [ -34.856529853425293, -7.159682219752417 ] ] ] ] } },
{ "type": "Feature", "properties": { "id": 4, "tipo": "predio", "nome": "CT" }, "geometry": { "type": "MultiPolygon", "coordinates": [ [ [ [ -34.856169505781139, -7.159660630778543 ], [ -34.856233104127909, -7.159419742937164 ], [ -34.856070610692562, -7.159376946052594 ], [ -34.856007012255574, -7.159617833893107 ], [ -34.856169505781139, -7.159660630778543 ] ] ] ] } },
{ "type": "Feature", "properties": { "id": 4, "tipo": "predio", "nome": "Bloco L" }, "geometry": { "type": "MultiPolygon", "coordinates": [ [ [ [ -34.85655121733005, -7.159786712599971 ], [ -34.856059432841086, -7.159662886327229 ], [ -34.856040106162204, -7.159739457060943 ], [ -34.856531890739461, -7.159863283332092 ], [ -34.85655121733005, -7.159786712599971 ] ] ] ] } },
{ "type": "Feature", "properties": { "id": 5, "tipo": "predio", "nome": "EVA" }, "geometry": { "type": "MultiPolygon", "coordinates": [ [ [ [ -34.854692009240118, -7.160200259088731 ], [ -34.85434365283416, -7.160111913025932 ], [ -34.854209759344599, -7.1606316644876 ], [ -34.854558115750564, -7.160720010449721 ], [ -34.854692009240118, -7.160200259088731 ] ] ] ] } },
{ "type": "Feature", "properties": { "id": 5, "tipo": "predio", "nome": "Biblioteca" }, "geometry": { "type": "MultiPolygon", "coordinates": [ [ [ [ -34.854107821214441, -7.160486433705747 ], [ -34.854207430308925, -7.160106965634149 ], [ -34.853764602374383, -7.159992530708645 ], [ -34.853664993279899, -7.160371998875454 ], [ -34.854107821214441, -7.160486433705747 ] ] ] ] } },
{ "type": "Feature", "properties": { "id": 4, "tipo": "predio", "nome": "Bloco J" }, "geometry": { "type": "MultiPolygon", "coordinates": [ [ [ [ -34.855874974353227, -7.159270888066772 ], [ -34.855956429357626, -7.158945535885302 ], [ -34.855931468988373, -7.158939383874754 ], [ -34.855947912986331, -7.158875674869077 ], [ -34.855854570952303, -7.158851956428643 ], [ -34.855893780102853, -7.15869534817688 ], [ -34.855779343964834, -7.158667150132361 ], [ -34.855664058313117, -7.159127621201566 ], [ -34.855778758968974, -7.159155892478746 ], [ -34.855757234052071, -7.159241868501113 ], [ -34.855874974353227, -7.159270888066772 ] ] ] ] } },
{ "type": "Feature", "properties": { "id": 2, "tipo": "predio", "nome": "Bloco F" }, "geometry": { "type": "MultiPolygon", "coordinates": [ [ [ [ -34.855592376387335, -7.158639235559849 ], [ -34.855623125868526, -7.158519288719045 ], [ -34.854906132644118, -7.158337836464636 ], [ -34.854876084228515, -7.158455653443178 ], [ -34.855592376387335, -7.158639235559849 ] ] ] ] } },
{ "type": "Feature", "properties": { "id": 3, "tipo": "predio", "nome": "Bloco G" }, "geometry": { "type": "MultiPolygon", "coordinates": [ [ [ [ -34.854958457489367, -7.157966213368587 ], [ -34.854929731141077, -7.158083402970648 ], [ -34.855727974931845, -7.158291273418969 ], [ -34.855758735839345, -7.15817416257977 ], [ -34.854958457489367, -7.157966213368587 ] ] ] ] } },
{ "type": "Feature", "properties": { "id": 3, "tipo": "predio", "nome": "Bloco H" }, "geometry": { "type": "MultiPolygon", "coordinates": [ [ [ [ -34.855195164330055, -7.157738535623286 ], [ -34.855161186486256, -7.157862834405578 ], [ -34.855760633389266, -7.158024152793715 ], [ -34.855794611233065, -7.157899854055382 ], [ -34.855195164330055, -7.157738535623286 ] ] ] ] } },
{ "type": "Feature", "properties": { "id": 3, "tipo": "predio", "nome": "Bloco I" }, "geometry": { "type": "MultiPolygon", "coordinates": [ [ [ [ -34.855807404783071, -7.157838441093753 ], [ -34.855836017579612, -7.157723300826344 ], [ -34.855323982214692, -7.157598033580129 ], [ -34.855295369418151, -7.15771317387915 ], [ -34.855807404783071, -7.157838441093753 ] ] ] ] } },
{ "type": "Feature", "properties": { "id": 5, "tipo": "predio", "nome": "Reitoria" }, "geometry": { "type": "MultiPolygon", "coordinates": [ [ [ [ -34.852833875293754, -7.159445684926941 ], [ -34.852638897582146, -7.159092911913584 ], [ -34.852290000190834, -7.159285279637221 ], [ -34.852484977790198, -7.159638052843113 ], [ -34.852833875293754, -7.159445684926941 ] ] ] ] } },
{ "type": "Feature", "properties": { "id": 6, "tipo": "predio", "nome": "Auditório" }, "geometry": { "type": "MultiPolygon", "coordinates": [ [ [ [ -34.852563631119452, -7.15852931577703 ], [ -34.852343394624164, -7.15830982633052 ], [ -34.852198444880784, -7.15845491712371 ], [ -34.852418681410853, -7.158674406638597 ], [ -34.852563631119452, -7.15852931577703 ] ] ] ] } },
{ "type": "Feature", "properties": { "id": 6, "tipo": "predio", "nome": "Bloco S" }, "geometry": { "type": "MultiPolygon", "coordinates": [ [ [ [ -34.852138720032187, -7.158965719103272 ], [ -34.851814577386541, -7.158667715335753 ], [ -34.851718691239988, -7.158761171147622 ], [ -34.85204343998695, -7.159059107437849 ], [ -34.852138720032187, -7.158965719103272 ] ] ] ] } },
{ "type": "Feature", "properties": { "id": 3, "tipo": "predio", "nome": "Bloco G" }, "geometry": { "type": "MultiPolygon", "coordinates": [ [ [ [ -34.853951949739603, -7.157789053570363 ], [ -34.85480524021208, -7.158005444014004 ], [ -34.854837165162401, -7.157885118832477 ], [ -34.85398266491373, -7.157668346054426 ], [ -34.853951949739603, -7.157789053570363 ] ] ] ] } },
{ "type": "Feature", "properties": { "id": 3, "tipo": "predio", "nome": "Bloco G" }, "geometry": { "type": "MultiPolygon", "coordinates": [ [ [ [ -34.854411958010452, -7.157724435883993 ], [ -34.854849722174045, -7.157833201284501 ], [ -34.854878876990433, -7.157712059587282 ], [ -34.854442441731436, -7.157603635719552 ], [ -34.854411958010452, -7.157724435883993 ] ] ] ] } },
{ "type": "Feature", "properties": { "id": 7, "tipo": "predio", "nome": "Predio N" }, "geometry": { "type": "MultiPolygon", "coordinates": [ [ [ [ -34.854356832164321, -7.160966007306354 ], [ -34.854386276567411, -7.160852211361697 ], [ -34.854041601113764, -7.160764413315881 ], [ -34.854039901479261, -7.16077098744504 ], [ -34.854031451906941, -7.160768839351466 ], [ -34.853792575373959, -7.160707562184619 ], [ -34.853784424172694, -7.160739030488051 ], [ -34.853764257070921, -7.160733743212972 ], [ -34.853711229933509, -7.16093409876316 ], [ -34.853888786747298, -7.160980199826989 ], [ -34.853917184340084, -7.160872415959965 ], [ -34.853998926349909, -7.16089341368008 ], [ -34.854003460765099, -7.160875971355603 ], [ -34.854356832164321, -7.160966007306354 ] ] ] ] } },
{ "type": "Feature", "properties": { "id": 7, "tipo": "predio", "nome": "Predio O" }, "geometry": { "type": "MultiPolygon", "coordinates": [ [ [ [ -34.854662957250497, -7.161126480792313 ], [ -34.854431554371843, -7.161065821054504 ], [ -34.854381913843305, -7.161252224398804 ], [ -34.854529061517496, -7.161290802804177 ], [ -34.854550222391147, -7.161211337811246 ], [ -34.854634480757909, -7.161233427841079 ], [ -34.854662957250497, -7.161126480792313 ] ] ] ] } },
{ "type": "Feature", "properties": { "id": 7, "tipo": "predio", "nome": "Predio P" }, "geometry": { "type": "MultiPolygon", "coordinates": [ [ [ [ -34.854316973785124, -7.161157644879044 ], [ -34.854346488313894, -7.161045414187428 ], [ -34.854156339944048, -7.160996185873672 ], [ -34.854126825415278, -7.161108416577393 ], [ -34.854316973785124, -7.161157644879044 ] ] ] ] } },
{ "type": "Feature", "properties": { "id": 8, "tipo": "predio", "nome": "Predio Q" }, "geometry": { "type": "MultiPolygon", "coordinates": [ [ [ [ -34.853606854288969, -7.160921569923238 ], [ -34.853507238785923, -7.160727333524679 ], [ -34.852662083057957, -7.161159722246342 ], [ -34.852761698393628, -7.161353958895783 ], [ -34.853606854288969, -7.160921569923238 ] ] ] ] } },
{ "type": "Feature", "properties": { "id": 8, "tipo": "predio", "nome": "Predio Q" }, "geometry": { "type": "MultiPolygon", "coordinates": [ [ [ [ -34.852676965935082, -7.160966818902637 ], [ -34.852888821182582, -7.160858465327388 ], [ -34.852833567505087, -7.160750694943737 ], [ -34.852621712281611, -7.160859048484594 ], [ -34.852676965935082, -7.160966818902637 ] ] ] ] } },
{ "type": "Feature", "properties": { "id": 8, "tipo": "predio", "nome": "Predio R" }, "geometry": { "type": "MultiPolygon", "coordinates": [ [ [ [ -34.853113246626343, -7.160685330602579 ], [ -34.853317343819441, -7.160599427011217 ], [ -34.85326680835918, -7.160485728695226 ], [ -34.853064697058919, -7.160572427522834 ], [ -34.853113246626343, -7.160685330602579 ] ] ] ] } },
{ "type": "Feature", "properties": { "id": 5, "tipo": "predio", "nome": "Descanso" }, "geometry": { "type": "MultiPolygon", "coordinates": [ [ [ [ -34.854432293305308, -7.160084105977945 ], [ -34.854420127776571, -7.160131307704661 ], [ -34.854611661300943, -7.160179882189017 ], [ -34.854623821156736, -7.160132702478186 ], [ -34.854432293305308, -7.160084105977945 ] ] ] ] } },
{ "type": "Feature", "properties": { "id": 3, "tipo": "predio", "nome": "Fisio" }, "geometry": { "type": "MultiPolygon", "coordinates": [ [ [ [ -34.855014800866769, -7.157745827230462 ], [ -34.854878876990433, -7.157712059587282 ], [ -34.854797124598086, -7.158036025874019 ], [ -34.854933048474415, -7.158069793493214 ], [ -34.855014800866769, -7.157745827230462 ] ] ] ] } },
{ "type": "Feature", "properties": { "id": 3, "tipo": "predio", "nome": "Bloco H" }, "geometry": { "type": "MultiPolygon", "coordinates": [ [ [ [ -34.855079777633513, -7.157840926297493 ], [ -34.855049067255315, -7.157957442021976 ], [ -34.855152970842916, -7.157984402976254 ], [ -34.855183390010147, -7.157868718274062 ], [ -34.855079777633513, -7.157840926297493 ] ] ] ] } },
{ "type": "Feature", "properties": { "id": 5, "tipo": "predio", "nome": "museu" }, "geometry": { "type": "MultiPolygon", "coordinates": [ [ [ [ -34.853063945948904, -7.15993961437191 ], [ -34.853119389920941, -7.160064681317653 ], [ -34.85334640937667, -7.159958687116647 ], [ -34.85328779649538, -7.159835099689629 ], [ -34.853063945948904, -7.15993961437191 ] ] ] ] } },
{ "type": "Feature", "properties": { "id": 7, "tipo": "predio", "nome": "Bloco M" }, "geometry": { "type": "MultiPolygon", "coordinates": [ [ [ [ -34.854859388473614, -7.160982624932098 ], [ -34.854474649916348, -7.160881750232905 ], [ -34.85444391218055, -7.160997178651892 ], [ -34.85482864843749, -7.161098047055104 ], [ -34.854859388473614, -7.160982624932098 ] ] ] ] } },
{ "type": "Feature", "properties": { "id": 1, "tipo": "predio", "nome": "Bloco A" }, "geometry": { "type": "MultiPolygon", "coordinates": [ [ [ [ -34.855053525499869, -7.159861714556417 ], [ -34.855087022408462, -7.159733504695852 ], [ -34.854371442683664, -7.159549452068617 ], [ -34.854337945775072, -7.159677661980917 ], [ -34.855053525499869, -7.159861714556417 ] ] ] ] } },
{ "type": "Feature", "properties": { "id": 1, "tipo": "predio", "nome": "Bloco B" }, "geometry": { "type": "MultiPolygon", "coordinates": [ [ [ [ -34.855116226421174, -7.159624880642801 ], [ -34.855147227697614, -7.159507782579178 ], [ -34.854804955337933, -7.159418574790243 ], [ -34.854773954061507, -7.159535672876786 ], [ -34.855116226421174, -7.159624880642801 ] ] ] ] } },
{ "type": "Feature", "properties": { "id": 1, "tipo": "predio", "nome": "Bloco C" }, "geometry": { "type": "MultiPolygon", "coordinates": [ [ [ [ -34.855169057369494, -7.159425327494721 ], [ -34.855202110733792, -7.159300478226275 ], [ -34.854486033666774, -7.159113844144169 ], [ -34.854452147257547, -7.159241840044361 ], [ -34.855169057369494, -7.159425327494721 ] ] ] ] } },
{ "type": "Feature", "properties": { "id": 1, "tipo": "predio", "nome": "Bloco C" }, "geometry": { "type": "MultiPolygon", "coordinates": [ [ [ [ -34.854430024566199, -7.159236074117602 ], [ -34.854463910975419, -7.159108078215859 ], [ -34.853715060094643, -7.158912902076999 ], [ -34.853681173685423, -7.159040898033513 ], [ -34.854430024566199, -7.159236074117602 ] ] ] ] } },
{ "type": "Feature", "properties": { "id": 1, "tipo": "predio", "nome": "Bloco B" }, "geometry": { "type": "MultiPolygon", "coordinates": [ [ [ [ -34.853938653935451, -7.159319924537903 ], [ -34.85396944982179, -7.159203602245987 ], [ -34.853682863274784, -7.159132959050897 ], [ -34.853653862137982, -7.159246517749401 ], [ -34.853938653935451, -7.159319924537903 ] ] ] ] } },
{ "type": "Feature", "properties": { "id": 1, "tipo": "predio", "nome": "Bloco A" }, "geometry": { "type": "MultiPolygon", "coordinates": [ [ [ [ -34.854316534589032, -7.159672159821685 ], [ -34.854350032379806, -7.159543950496793 ], [ -34.853680727837492, -7.159371794809655 ], [ -34.853647230046718, -7.159500004182926 ], [ -34.854316534589032, -7.159672159821685 ] ] ] ] } },
{ "type": "Feature", "properties": { "id": 2, "tipo": "predio", "nome": "Bloco F" }, "geometry": { "type": "MultiPolygon", "coordinates": [ [ [ [ -34.854647192762343, -7.158370280807598 ], [ -34.854676179209676, -7.158256436894821 ], [ -34.853889182001716, -7.158051311863922 ], [ -34.853859116309373, -7.158164874900034 ], [ -34.854647192762343, -7.158370280807598 ] ] ] ] } },
{ "type": "Feature", "properties": { "id": 2, "tipo": "predio", "nome": "Bloco E" }, "geometry": { "type": "MultiPolygon", "coordinates": [ [ [ [ -34.854591166194439, -7.158590324362317 ], [ -34.854620152654832, -7.158476480453126 ], [ -34.853832393129331, -7.158271156989374 ], [ -34.853802327436995, -7.158384720025487 ], [ -34.854591166194439, -7.158590324362317 ] ] ] ] } },
{ "type": "Feature", "properties": { "id": 2, "tipo": "predio", "nome": "Bloco D" }, "geometry": { "type": "MultiPolygon", "coordinates": [ [ [ [ -34.854536769334963, -7.158803967269419 ], [ -34.854565755808025, -7.158690123363789 ], [ -34.853775931946473, -7.158484265191363 ], [ -34.853745866254137, -7.158597828227464 ], [ -34.854536769334963, -7.158803967269419 ] ] ] ] } }
]
}
